[{"OBJECT_NAME":"SHIJIAN-6 02B (SJ-6 02B)","OBJECT_ID":"2006-046B","EPOCH":"2026-03-09T23:09:06.940224","MEAN_MOTION":15.01001333,"ECCENTRICITY":0.00140021,"INCLINATION":97.7065,"RA_OF_ASC_NODE":98.697,"ARG_OF_PERICENTER":42.7506,"MEAN_ANOMALY":317.4805,"EPHEMERIS_TYPE":0,"CLASSIFICATION_TYPE":"U","NORAD_CAT_ID":29506,"ELEMENT_SET_NO":999,"REV_AT_EPOCH":5585,"BSTAR":0.00024683398,"MEAN_MOTION_DOT":3.096e-5,"MEAN_MOTION_DDOT":0},{"OBJECT_NAME":"STARLINK-5902","OBJECT_ID":"2023-042N","EPOCH":"2026-03-09T00:52:28.838496","MEAN_MOTION":15.02537897,"ECCENTRICITY":0.00012932,"INCLINATION":43.0042,"RA_OF_ASC_NODE":59.5275,"ARG_OF_PERICENTER":263.1469,"MEAN_ANOMALY":96.9226,"EPHEMERIS_TYPE":0,"CLASSIFICATION_TYPE":"U","NORAD_CAT_ID":55998,"ELEMENT_SET_NO":999,"REV_AT_EPOCH":16281,"BSTAR":0.00010539184,"MEAN_MOTION_DOT":1.22e-5,"MEAN_MOTION_DDOT":0}]
